BANDWAGON-2 OBJECT D    
1 62380U 24247D   26068.52261193  .00011259  00000+0  40119-3 0  9994
2 62380  44.9954 115.6710 0003488 351.1453   8.9368 15.29076102 67732
STARLINK-35149          
1 65512U 25198W   26068.81349301  .00013325  00000+0  46131-3 0  9996
2 65512  53.1592 270.0933 0001272  58.2526 301.8598 15.30192210 28648
